[{"OBJECT_NAME":"ONEWEB-0239","OBJECT_ID":"2021-045AM","EPOCH":"2025-11-15T16:50:47.641920","MEAN_MOTION":13.15548596,"ECCENTRICITY":0.0002708,"INCLINATION":87.8965,"RA_OF_ASC_NODE":301.8115,"ARG_OF_PERICENTER":83.7885,"MEAN_ANOMALY":276.3554,"EPHEMERIS_TYPE":0,"CLASSIFICATION_TYPE":"U","NORAD_CAT_ID":48802,"ELEMENT_SET_NO":999,"REV_AT_EPOCH":21627,"BSTAR":0.00020156,"MEAN_MOTION_DOT":8.9e-7,"MEAN_MOTION_DDOT":0},{"OBJECT_NAME":"ONEWEB-0249","OBJECT_ID":"2021-060A","EPOCH":"2025-11-15T19:18:39.261312","MEAN_MOTION":13.16592821,"ECCENTRICITY":0.0002015,"INCLINATION":87.9012,"RA_OF_ASC_NODE":271.2739,"ARG_OF_PERICENTER":80.9588,"MEAN_ANOMALY":279.1771,"EPHEMERIS_TYPE":0,"CLASSIFICATION_TYPE":"U","NORAD_CAT_ID":48967,"ELEMENT_SET_NO":999,"REV_AT_EPOCH":21153,"BSTAR":5.2343e-5,"MEAN_MOTION_DOT":3.3e-7,"MEAN_MOTION_DDOT":0},{"OBJECT_NAME":"ONEWEB-0250","OBJECT_ID":"2021-060B","EPOCH":"2025-11-15T10:20:17.054016","MEAN_MOTION":13.25818364,"ECCENTRICITY":0.0002571,"INCLINATION":87.9011,"RA_OF_ASC_NODE":269.8038,"ARG_OF_PERICENTER":59.7228,"MEAN_ANOMALY":300.4163,"EPHEMERIS_TYPE":0,"CLASSIFICATION_TYPE":"U","NORAD_CAT_ID":48968,"ELEMENT_SET_NO":999,"REV_AT_EPOCH":21189,"BSTAR":0.00040318,"MEAN_MOTION_DOT":1.9e-6,"MEAN_MOTION_DDOT":0},{"OBJECT_NAME":"ONEWEB-0252","OBJECT_ID":"2021-060D","EPOCH":"2025-11-15T20:04:16.674240","MEAN_MOTION":13.16593947,"ECCENTRICITY":0.0001872,"INCLINATION":87.901,"RA_OF_ASC_NODE":271.2608,"ARG_OF_PERICENTER":88.7186,"MEAN_ANOMALY":271.4159,"EPHEMERIS_TYPE":0,"CLASSIFICATION_TYPE":"U","NORAD_CAT_ID":48970,"ELEMENT_SET_NO":999,"REV_AT_EPOCH":21158,"BSTAR":3.0148e-6,"MEAN_MOTION_DOT":1.4e-7,"MEAN_MOTION_DDOT":0},{"OBJECT_NAME":"ONEWEB-0253","OBJECT_ID":"2021-060E","EPOCH":"2025-11-15T19:48:19.245600","MEAN_MOTION":13.16593657,"ECCENTRICITY":0.0002056,"INCLINATION":87.9015,"RA_OF_ASC_NODE":271.2672,"ARG_OF_PERICENTER":83.1313,"MEAN_ANOMALY":277.0052,"EPHEMERIS_TYPE":0,"CLASSIFICATION_TYPE":"U","NORAD_CAT_ID":48971,"ELEMENT_SET_NO":999,"REV_AT_EPOCH":21151,"BSTAR":3.4963e-5,"MEAN_MOTION_DOT":2.6e-7,"MEAN_MOTION_DDOT":0},{"OBJECT_NAME":"ONEWEB-0254","OBJECT_ID":"2021-060F","EPOCH":"2025-11-15T20:02:00.310848","MEAN_MOTION":13.16594314,"ECCENTRICITY":0.0002313,"INCLINATION":87.9018,"RA_OF_ASC_NODE":271.2554,"ARG_OF_PERICENTER":80.6664,"MEAN_ANOMALY":279.4728,"EPHEMERIS_TYPE":0,"CLASSIFICATION_TYPE":"U","NORAD_CAT_ID":48972,"ELEMENT_SET_NO":999,"REV_AT_EPOCH":21151,"BSTAR":-5.1673e-5,"MEAN_MOTION_DOT":-7.0e-8,"MEAN_MOTION_DDOT":0},{"OBJECT_NAME":"ONEWEB-0255","OBJECT_ID":"2021-060G","EPOCH":"2025-11-15T19:07:15.470112","MEAN_MOTION":13.16593335,"ECCENTRICITY":0.0002153,"INCLINATION":87.9009,"RA_OF_ASC_NODE":271.2818,"ARG_OF_PERICENTER":80.518,"MEAN_ANOMALY":279.6195,"EPHEMERIS_TYPE":0,"CLASSIFICATION_TYPE":"U","NORAD_CAT_ID":48973,"ELEMENT_SET_NO":999,"REV_AT_EPOCH":21158,"BSTAR":0.00015414,"MEAN_MOTION_DOT":7.2e-7,"MEAN_MOTION_DDOT":0},{"OBJECT_NAME":"ONEWEB-0256","OBJECT_ID":"2021-060H","EPOCH":"2025-11-15T19:44:52.169856","MEAN_MOTION":13.165921,"ECCENTRICITY":0.0001804,"INCLINATION":87.9003,"RA_OF_ASC_NODE":271.2863,"ARG_OF_PERICENTER":81.7901,"MEAN_ANOMALY":278.3434,"EPHEMERIS_TYPE":0,"CLASSIFICATION_TYPE":"U","NORAD_CAT_ID":48974,"ELEMENT_SET_NO":999,"REV_AT_EPOCH":21155,"BSTAR":-0.00014794,"MEAN_MOTION_DOT":-4.4e-7,"MEAN_MOTION_DDOT":0},{"OBJECT_NAME":"ONEWEB-0257","OBJECT_ID":"2021-060J","EPOCH":"2025-11-15T15:03:18.288864","MEAN_MOTION":13.16594383,"ECCENTRICITY":0.0002044,"INCLINATION":87.9012,"RA_OF_ASC_NODE":271.3011,"ARG_OF_PERICENTER":85.438,"MEAN_ANOMALY":274.6984,"EPHEMERIS_TYPE":0,"CLASSIFICATION_TYPE":"U","NORAD_CAT_ID":48975,"ELEMENT_SET_NO":999,"REV_AT_EPOCH":21148,"BSTAR":-0.00060009,"MEAN_MOTION_DOT":-2.17e-6,"MEAN_MOTION_DDOT":0},{"OBJECT_NAME":"ONEWEB-0258","OBJECT_ID":"2021-060K","EPOCH":"2025-11-15T09:37:16.857120","MEAN_MOTION":13.16592636,"ECCENTRICITY":0.0001917,"INCLINATION":87.9002,"RA_OF_ASC_NODE":271.3631,"ARG_OF_PERICENTER":77.2103,"MEAN_ANOMALY":282.9242,"EPHEMERIS_TYPE":0,"CLASSIFICATION_TYPE":"U","NORAD_CAT_ID":48976,"ELEMENT_SET_NO":999,"REV_AT_EPOCH":21146,"BSTAR":0.00039694,"MEAN_MOTION_DOT":1.65e-6,"MEAN_MOTION_DDOT":0},{"OBJECT_NAME":"ONEWEB-0259","OBJECT_ID":"2021-060L","EPOCH":"2025-11-15T20:24:46.293984","MEAN_MOTION":13.16593656,"ECCENTRICITY":0.0002051,"INCLINATION":87.9015,"RA_OF_ASC_NODE":271.2652,"ARG_OF_PERICENTER":80.4622,"MEAN_ANOMALY":279.674,"EPHEMERIS_TYPE":0,"CLASSIFICATION_TYPE":"U","NORAD_CAT_ID":48977,"ELEMENT_SET_NO":999,"REV_AT_EPOCH":21155,"BSTAR":-0.0005789,"MEAN_MOTION_DOT":-2.08e-6,"MEAN_MOTION_DDOT":0},{"OBJECT_NAME":"ONEWEB-0260","OBJECT_ID":"2021-060M","EPOCH":"2025-11-15T20:12:14.131872","MEAN_MOTION":13.16596742,"ECCENTRICITY":0.0001662,"INCLINATION":87.9002,"RA_OF_ASC_NODE":271.2839,"ARG_OF_PERICENTER":92.3118,"MEAN_ANOMALY":267.8203,"EPHEMERIS_TYPE":0,"CLASSIFICATION_TYPE":"U","NORAD_CAT_ID":48978,"ELEMENT_SET_NO":999,"REV_AT_EPOCH":21153,"BSTAR":1.7559e-5,"MEAN_MOTION_DOT":2.0e-7,"MEAN_MOTION_DDOT":0},{"OBJECT_NAME":"ONEWEB-0261","OBJECT_ID":"2021-060N","EPOCH":"2025-11-15T19:28:56.705088","MEAN_MOTION":13.1659586,"ECCENTRICITY":0.0002309,"INCLINATION":87.9005,"RA_OF_ASC_NODE":271.292,"ARG_OF_PERICENTER":86.979,"MEAN_ANOMALY":273.1605,"EPHEMERIS_TYPE":0,"CLASSIFICATION_TYPE":"U","NORAD_CAT_ID":48979,"ELEMENT_SET_NO":999,"REV_AT_EPOCH":21158,"BSTAR":0.0001713,"MEAN_MOTION_DOT":7.8e-7,"MEAN_MOTION_DDOT":0},{"OBJECT_NAME":"ONEWEB-0262","OBJECT_ID":"2021-060P","EPOCH":"2025-11-15T13:32:06.723744","MEAN_MOTION":13.16592723,"ECCENTRICITY":0.0002144,"INCLINATION":87.9014,"RA_OF_ASC_NODE":271.3119,"ARG_OF_PERICENTER":75.1812,"MEAN_ANOMALY":284.9556,"EPHEMERIS_TYPE":0,"CLASSIFICATION_TYPE":"U","NORAD_CAT_ID":48980,"ELEMENT_SET_NO":999,"REV_AT_EPOCH":21151,"BSTAR":0.00016371,"MEAN_MOTION_DOT":7.5e-7,"MEAN_MOTION_DDOT":0},{"OBJECT_NAME":"ONEWEB-0263","OBJECT_ID":"2021-060Q","EPOCH":"2025-11-15T19:46:01.369344","MEAN_MOTION":13.16593849,"ECCENTRICITY":0.0002256,"INCLINATION":87.9006,"RA_OF_ASC_NODE":271.2762,"ARG_OF_PERICENTER":84.5902,"MEAN_ANOMALY":275.5486,"EPHEMERIS_TYPE":0,"CLASSIFICATION_TYPE":"U","NORAD_CAT_ID":48981,"ELEMENT_SET_NO":999,"REV_AT_EPOCH":21151,"BSTAR":-0.00067466,"MEAN_MOTION_DOT":-2.45e-6,"MEAN_MOTION_DDOT":0},{"OBJECT_NAME":"ONEWEB-0264","OBJECT_ID":"2021-060R","EPOCH":"2025-11-15T20:39:37.554048","MEAN_MOTION":13.16594945,"ECCENTRICITY":0.0001946,"INCLINATION":87.9003,"RA_OF_ASC_NODE":271.2733,"ARG_OF_PERICENTER":87.4282,"MEAN_ANOMALY":272.7072,"EPHEMERIS_TYPE":0,"CLASSIFICATION_TYPE":"U","NORAD_CAT_ID":48982,"ELEMENT_SET_NO":999,"REV_AT_EPOCH":21152,"BSTAR":0.00046022,"MEAN_MOTION_DOT":1.89e-6,"MEAN_MOTION_DDOT":0},{"OBJECT_NAME":"ONEWEB-0266","OBJECT_ID":"2021-060T","EPOCH":"2025-11-15T19:20:56.810112","MEAN_MOTION":13.16594432,"ECCENTRICITY":0.0001951,"INCLINATION":87.9014,"RA_OF_ASC_NODE":271.2673,"ARG_OF_PERICENTER":74.4243,"MEAN_ANOMALY":285.7103,"EPHEMERIS_TYPE":0,"CLASSIFICATION_TYPE":"U","NORAD_CAT_ID":48984,"ELEMENT_SET_NO":999,"REV_AT_EPOCH":21150,"BSTAR":-0.00046575,"MEAN_MOTION_DOT":-1.65e-6,"MEAN_MOTION_DDOT":0},{"OBJECT_NAME":"ONEWEB-0267","OBJECT_ID":"2021-060U","EPOCH":"2025-11-15T19:36:55.480320","MEAN_MOTION":13.16594578,"ECCENTRICITY":0.0002091,"INCLINATION":87.9011,"RA_OF_ASC_NODE":271.2651,"ARG_OF_PERICENTER":85.1561,"MEAN_ANOMALY":274.9809,"EPHEMERIS_TYPE":0,"CLASSIFICATION_TYPE":"U","NORAD_CAT_ID":48985,"ELEMENT_SET_NO":999,"REV_AT_EPOCH":21151,"BSTAR":-4.369e-5,"MEAN_MOTION_DOT":-4.0e-8,"MEAN_MOTION_DDOT":0},{"OBJECT_NAME":"ONEWEB-0268","OBJECT_ID":"2021-060V","EPOCH":"2025-11-15T20:40:44.646240","MEAN_MOTION":13.16593608,"ECCENTRICITY":0.0001893,"INCLINATION":87.9013,"RA_OF_ASC_NODE":271.2643,"ARG_OF_PERICENTER":81.8434,"MEAN_ANOMALY":278.2912,"EPHEMERIS_TYPE":0,"CLASSIFICATION_TYPE":"U","NORAD_CAT_ID":48986,"ELEMENT_SET_NO":999,"REV_AT_EPOCH":21178,"BSTAR":0.00014879,"MEAN_MOTION_DOT":7.0e-7,"MEAN_MOTION_DDOT":0},{"OBJECT_NAME":"ONEWEB-0269","OBJECT_ID":"2021-060W","EPOCH":"2025-11-15T20:13:23.885184","MEAN_MOTION":13.16594455,"ECCENTRICITY":0.0001748,"INCLINATION":87.9,"RA_OF_ASC_NODE":271.2928,"ARG_OF_PERICENTER":81.3529,"MEAN_ANOMALY":278.7799,"EPHEMERIS_TYPE":0,"CLASSIFICATION_TYPE":"U","NORAD_CAT_ID":48987,"ELEMENT_SET_NO":999,"REV_AT_EPOCH":21155,"BSTAR":0.00017477,"MEAN_MOTION_DOT":8.0e-7,"MEAN_MOTION_DDOT":0},{"OBJECT_NAME":"ONEWEB-0270","OBJECT_ID":"2021-060X","EPOCH":"2025-11-15T15:10:10.214688","MEAN_MOTION":13.16595122,"ECCENTRICITY":0.0002316,"INCLINATION":87.9013,"RA_OF_ASC_NODE":271.3118,"ARG_OF_PERICENTER":80.3917,"MEAN_ANOMALY":279.7476,"EPHEMERIS_TYPE":0,"CLASSIFICATION_TYPE":"U","NORAD_CAT_ID":48988,"ELEMENT_SET_NO":999,"REV_AT_EPOCH":21156,"BSTAR":0.00026603,"MEAN_MOTION_DOT":1.15e-6,"MEAN_MOTION_DDOT":0},{"OBJECT_NAME":"ONEWEB-0271","OBJECT_ID":"2021-060Y","EPOCH":"2025-11-15T14:51:54.965088","MEAN_MOTION":13.16592396,"ECCENTRICITY":0.0002136,"INCLINATION":87.9024,"RA_OF_ASC_NODE":271.3011,"ARG_OF_PERICENTER":84.784,"MEAN_ANOMALY":275.3535,"EPHEMERIS_TYPE":0,"CLASSIFICATION_TYPE":"U","NORAD_CAT_ID":48989,"ELEMENT_SET_NO":999,"REV_AT_EPOCH":21156,"BSTAR":8.9088e-5,"MEAN_MOTION_DOT":4.7e-7,"MEAN_MOTION_DDOT":0},{"OBJECT_NAME":"ONEWEB-0272","OBJECT_ID":"2021-060Z","EPOCH":"2025-11-15T19:02:41.873280","MEAN_MOTION":13.16592782,"ECCENTRICITY":0.0001975,"INCLINATION":87.9004,"RA_OF_ASC_NODE":271.2863,"ARG_OF_PERICENTER":87.0707,"MEAN_ANOMALY":273.065,"EPHEMERIS_TYPE":0,"CLASSIFICATION_TYPE":"U","NORAD_CAT_ID":48990,"ELEMENT_SET_NO":999,"REV_AT_EPOCH":21153,"BSTAR":0.00013631,"MEAN_MOTION_DOT":6.5e-7,"MEAN_MOTION_DDOT":0},{"OBJECT_NAME":"ONEWEB-0273","OBJECT_ID":"2021-060AA","EPOCH":"2025-11-15T19:34:38.404992","MEAN_MOTION":13.16594135,"ECCENTRICITY":0.0002061,"INCLINATION":87.9013,"RA_OF_ASC_NODE":271.2749,"ARG_OF_PERICENTER":80.3539,"MEAN_ANOMALY":279.7825,"EPHEMERIS_TYPE":0,"CLASSIFICATION_TYPE":"U","NORAD_CAT_ID":48991,"ELEMENT_SET_NO":999,"REV_AT_EPOCH":21151,"BSTAR":-0.00015844,"MEAN_MOTION_DOT":-4.8e-7,"MEAN_MOTION_DDOT":0}]
